NORAD_CAT_ID,OBJECT_NAME,OBJECT_TYPE,EPOCH,MEAN_MOTION,ECCENTRICITY,INCLINATION,RA_OF_ASC_NODE,ARG_OF_PERICENTER,MEAN_ANOMALY,BSTAR,MEAN_MOTION_DOT,MEAN_MOTION_DDOT,TLE_LINE0,TLE_LINE1,TLE_LINE2,SEMIMAJOR_AXIS,PERIOD,APOGEE,PERIGEE,DECAYED
53538.0,STARLINK-4118,PAYLOAD,2024-03-08 19:32:02,15.0884516,0.0001413,53.2154,105.1505,89.9593,270.1561,8.1467e-05,1.009e-05,0.0,0 STARLINK-4118,1 53538U 22101M   24068.81391808  .00001009  00000-0  81467-4 0  9998,2 53538  53.2154 105.1505 0001413  89.9593 270.1561 15.08845160 85963,6917.865,95.437,540.707,538.752,0.0
53538.0,STARLINK-4118,PAYLOAD,2024-03-09 01:53:35,15.08836158,0.0001598,53.2156,103.9618,91.8661,268.2514,1.2623e-05,-8.7e-07,0.0,0 STARLINK-4118,1 53538U 22101M   24069.07888294 -.00000087  00000-0  12623-4 0  9991,2 53538  53.2156 103.9618 0001598  91.8661 268.2514 15.08836158 86007,6917.892,95.438,540.863,538.652,0.0
53538.0,STARLINK-4118,PAYLOAD,2024-03-09 09:50:31,15.08840357,0.0001523,53.2165,102.4746,92.8402,267.2764,8.3862e-05,1.047e-05,0.0,0 STARLINK-4118,1 53538U 22101M   24069.41008398  .00001047  00000-0  83862-4 0  9997,2 53538  53.2165 102.4746 0001523  92.8402 267.2764 15.08840357 86748,6917.879,95.438,540.798,538.691,0.0
53538.0,STARLINK-4118,PAYLOAD,2024-03-09 19:22:49,15.08849822,0.0001484,53.2161,100.6882,86.6257,273.4905,8.4362e-05,1.055e-05,0.0,0 STARLINK-4118,1 53538U 22101M   24069.80751572  .00001055  00000-0  84362-4 0  9994,2 53538  53.2161 100.6882 0001484  86.6257 273.4905 15.08849822 86113,6917.85,95.437,540.742,538.689,0.0
53538.0,STARLINK-4118,PAYLOAD,2024-03-10 01:44:22,15.0883177,0.0001272,53.2157,99.4978,96.0796,264.0341,-5.2196e-05,-1.118e-05,0.0,0 STARLINK-4118,1 53538U 22101M   24070.07248486 -.00001118  00000-0 -52196-4 0  9992,2 53538  53.2157  99.4978 0001272  96.0796 264.0341 15.08831770 86154,6917.906,95.438,540.651,538.891,0.0
53538.0,STARLINK-4118,PAYLOAD,2024-03-10 08:05:55,15.0883934,0.0001314,53.2157,98.3104,90.4353,269.679,5.8521e-05,6.44e-06,0.0,0 STARLINK-4118,1 53538U 22101M   24070.33744359  .00000644  00000-0  58521-4 0  9990,2 53538  53.2157  98.3104 0001314  90.4353 269.6790 15.08839340 86887,6917.882,95.438,540.656,538.838,0.0
53538.0,STARLINK-4118,PAYLOAD,2024-03-11 07:56:41,15.0884325,0.0001346,53.2152,93.8495,96.4917,263.6229,0.00015698,2.212e-05,0.0,0 STARLINK-4118,1 53538U 22101M   24071.33104051  .00002212  00000-0  15698-3 0  9990,2 53538  53.2152  93.8495 0001346  96.4917 263.6229 15.08843250 87036,6917.87,95.437,540.667,538.804,0.0
53538.0,STARLINK-4118,PAYLOAD,2024-03-12 04:36:42,15.08838019,0.0001394,53.215,89.9824,93.0181,267.0971,9.0988e-05,1.16e-05,0.0,0 STARLINK-4118,1 53538U 22101M   24072.19216321  .00001160  00000-0  90988-4 0  9996,2 53538  53.2150  89.9824 0001394  93.0181 267.0971 15.08838019 86471,6917.886,95.438,540.716,538.787,0.0
53538.0,STARLINK-4118,PAYLOAD,2024-03-12 07:47:29,15.08836042,0.0001302,53.2159,89.3896,86.8488,273.2653,9.0678e-05,1.155e-05,0.0,0 STARLINK-4118,1 53538U 22101M   24072.32464509  .00001155  00000-0  90678-4 0  9994,2 53538  53.2159  89.3896 0001302  86.8488 273.2653 15.08836042 87181,6917.892,95.438,540.658,538.857,0.0
53538.0,STARLINK-4118,PAYLOAD,2024-03-13 07:38:16,15.08840725,0.0001317,53.216,84.9283,87.7248,272.3895,4.2701e-05,3.92e-06,0.0,0 STARLINK-4118,1 53538U 22101M   24073.31824236  .00000392  00000-0  42701-4 0  9997,2 53538  53.2160  84.9283 0001317  87.7248 272.3895 15.08840725 86645,6917.878,95.438,540.654,538.832,0.0
53538.0,STARLINK-4118,PAYLOAD,2024-03-13 17:10:34,15.08851516,0.0001417,53.2172,83.1437,89.1204,270.9951,6.4698e-05,7.42e-06,0.0,0 STARLINK-4118,1 53538U 22101M   24073.71567422  .00000742  00000-0  64698-4 0  9990,2 53538  53.2172  83.1437 0001417  89.1204 270.9951 15.08851516 86703,6917.845,95.437,540.69,538.73,0.0
53538.0,STARLINK-4118,PAYLOAD,2024-03-14 04:18:17,15.0883269,0.0001441,53.217,81.0618,87.8297,272.2861,4.3564e-05,4.05e-06,0.0,0 STARLINK-4118,1 53538U 22101M   24074.17936887  .00000405  00000-0  43564-4 0  9991,2 53538  53.2170  81.0618 0001441  87.8297 272.2861 15.08832690 86777,6917.903,95.438,540.765,538.771,0.0
53538.0,STARLINK-4118,PAYLOAD,2024-03-14 07:29:03,15.08837546,0.0001477,53.2168,80.468,92.3931,267.723,9.4385e-05,1.214e-05,0.0,0 STARLINK-4118,1 53538U 22101M   24074.31184524  .00001214  00000-0  94385-4 0  9996,2 53538  53.2168  80.4680 0001477  92.3931 267.7230 15.08837546 87484,6917.888,95.438,540.775,538.731,0.0
53538.0,STARLINK-4118,PAYLOAD,2024-03-15 07:19:50,15.0883635,0.0001519,53.2162,76.0083,96.8016,263.3149,7.7713e-06,-1.64e-06,0.0,0 STARLINK-4118,1 53538U 22101M   24075.30544541 -.00000164  00000-0  77713-5 0  9996,2 53538  53.2162  76.0083 0001519  96.8016 263.3149 15.08836350 86949,6917.892,95.438,540.807,538.706,0.0
53538.0,STARLINK-4118,PAYLOAD,2024-03-16 03:59:52,15.08813955,0.0001593,53.2166,72.1428,99.4947,260.6225,-0.00016377,-2.892e-05,0.0,0 STARLINK-4118,1 53538U 22101M   24076.16658558 -.00002892  00000-0 -16377-3 0  9993,2 53538  53.2166  72.1428 0001593  99.4947 260.6225 15.08813955 87073,6917.96,95.439,540.927,538.723,0.0
53538.0,STARLINK-4118,PAYLOAD,2024-03-16 08:46:02,15.08818629,0.0001488,53.2169,71.25,99.5713,260.5447,-6.334e-05,-1.295e-05,0.0,0 STARLINK-4118,1 53538U 22101M   24076.36531249 -.00001295  00000-0 -63340-4 0  9991,2 53538  53.2169  71.2500 0001488  99.5713 260.5447 15.08818629 87799,6917.946,95.439,540.84,538.781,0.0
53538.0,STARLINK-4118,PAYLOAD,2024-03-17 03:50:40,15.08832883,0.0001498,53.2161,67.684,77.5938,282.5222,7.667e-05,9.32e-06,0.0,0 STARLINK-4118,1 53538U 22101M   24077.16018560  .00000932  00000-0  76670-4 0  9991,2 53538  53.2161  67.6840 0001498  77.5938 282.5222 15.08832883 87224,6917.902,95.438,540.803,538.731,0.0
53538.0,STARLINK-4118,PAYLOAD,2024-03-17 08:36:48,15.08845683,0.0001607,53.2175,66.7864,97.5854,262.5321,0.00017327,2.471e-05,0.0,0 STARLINK-4118,1 53538U 22101M   24077.35889585  .00002471  00000-0  17327-3 0  9998,2 53538  53.2175  66.7864 0001607  97.5854 262.5321 15.08845683 87259,6917.863,95.437,540.84,538.616,0.0
53538.0,STARLINK-4118,PAYLOAD,2024-03-18 05:16:49,15.08848548,0.000145,53.2176,62.9206,93.533,266.5828,0.00032153,4.834e-05,0.0,0 STARLINK-4118,1 53538U 22101M   24078.22001214  .00004834  00000-0  32153-3 0  9999,2 53538  53.2176  62.9206 0001450  93.5330 266.5828 15.08848548 88079,6917.854,95.437,540.722,538.716,0.0
53538.0,STARLINK-4118,PAYLOAD,2024-03-18 22:46:03,15.0886249,0.0001555,53.2179,59.6531,88.6498,271.4673,8.4397e-05,1.056e-05,0.0,0 STARLINK-4118,1 53538U 22101M   24078.94864672  .00001056  00000-0  84397-4 0  9994,2 53538  53.2179  59.6531 0001555  88.6498 271.4673 15.08862490 88189,6917.812,95.436,540.752,538.601,0.0
53538.0,STARLINK-4118,PAYLOAD,2024-03-19 03:32:12,15.08858368,0.0001421,53.2176,58.7563,107.1772,252.9376,5.2965e-05,5.55e-06,0.0,0 STARLINK-4118,1 53538U 22101M   24079.14736647  .00000555  00000-0  52965-4 0  9996,2 53538  53.2176  58.7563 0001421 107.1772 252.9376 15.08858368 87525,6917.824,95.436,540.672,538.706,0.0
53538.0,STARLINK-4118,PAYLOAD,2024-03-19 08:18:21,15.08855536,0.0001393,53.2176,57.8653,108.295,251.8194,1.4234e-05,-6.1e-07,0.0,0 STARLINK-4118,1 53538U 22101M   24079.34608642 -.00000061  00000-0  14234-4 0  9991,2 53538  53.2176  57.8653 0001393 108.2950 251.8194 15.08855536 88243,6917.833,95.437,540.662,538.734,0.0
53538.0,STARLINK-4118,PAYLOAD,2024-03-20 01:47:36,15.08849554,0.0001492,53.2176,54.5929,114.7708,245.3439,-3.5856e-05,-8.59e-06,0.0,0 STARLINK-4118,1 53538U 22101M   24080.07472489 -.00000859  00000-0 -35856-4 0  9990,2 53538  53.2176  54.5929 0001492 114.7708 245.3439 15.08849554 87664,6917.851,95.437,540.748,538.684,0.0
53538.0,STARLINK-4118,PAYLOAD,2024-03-20 08:09:08,15.08848575,0.0001423,53.2178,53.4042,107.1172,252.9976,-5.1845e-05,-1.113e-05,0.0,0 STARLINK-4118,1 53538U 22101M   24080.33968428 -.00001113  00000-0 -51845-4 0  9992,2 53538  53.2178  53.4042 0001423 107.1172 252.9976 15.08848575 88398,6917.854,95.437,540.704,538.735,0.0
53538.0,STARLINK-4118,PAYLOAD,2024-03-21 04:49:09,15.08837407,0.0001276,53.2175,49.5391,90.7182,269.3956,-2.1314e-05,-6.27e-06,0.0,0 STARLINK-4118,1 53538U 22101M   24081.20080940 -.00000627  00000-0 -21314-4 0  9990,2 53538  53.2175  49.5391 0001276  90.7182 269.3956 15.08837407 87832,6917.888,95.438,540.636,538.871,0.0
53538.0,STARLINK-4118,PAYLOAD,2024-03-21 14:21:28,15.08845449,0.0001512,53.2189,47.7584,111.6153,248.5,3.7451e-05,3.08e-06,0.0,0 STARLINK-4118,1 53538U 22101M   24081.59824221  .00000308  00000-0  37451-4 0  9993,2 53538  53.2189  47.7584 0001512 111.6153 248.5000 15.08845449 88582,6917.864,95.437,540.775,538.683,0.0
53538.0,STARLINK-4118,PAYLOAD,2024-03-22 04:39:56,15.08838212,0.000156,53.2191,45.0832,102.1987,257.9179,3.2224e-05,2.25e-06,0.0,0 STARLINK-4118,1 53538U 22101M   24082.19440943  .00000225  00000-0  32224-4 0  9996,2 53538  53.2191  45.0832 0001560 102.1987 257.9179 15.08838212 87989,6917.886,95.438,540.83,538.672,0.0
53538.0,STARLINK-4118,PAYLOAD,2024-03-22 07:50:42,15.0884858,0.0001347,53.2184,44.4867,102.1946,257.9197,0.00013979,1.938e-05,0.0,0 STARLINK-4118,1 53538U 22101M   24082.32687886  .00001938  00000-0  13979-3 0  9997,2 53538  53.2184  44.4867 0001347 102.1946 257.9197 15.08848580 88003,6917.854,95.437,540.651,538.787,0.0
53538.0,STARLINK-4118,PAYLOAD,2024-03-22 20:33:48,15.0883151,0.000154,53.2173,42.1021,127.7814,232.3318,1.7984e-05,-2e-08,0.0,0 STARLINK-4118,1 53538U 22101M   24082.85681352 -.00000002  00000-0  17984-4 0  9990,2 53538  53.2173  42.1021 0001540 127.7814 232.3318 15.08831510 88085,6917.906,95.438,540.837,538.706,0.0
53538.0,STARLINK-4118,PAYLOAD,2024-03-23 06:06:08,15.08823842,0.0001004,53.218,40.321,96.7894,263.3212,-3.4104e-05,-8.3e-06,0.0,0 STARLINK-4118,1 53538U 22101M   24083.25426548 -.00000830  00000-0 -34104-4 0  9992,2 53538  53.2180  40.3210 0001004  96.7894 263.3212 15.08823842 88144,6917.93,95.439,540.489,539.1,0.0
